ONEWEB-0208             
1 48243U 21031AK  24239.75159197 -.00000125  00000+0 -37085-3 0  9997
2 48243  87.8924  60.8562 0001757  94.9346 265.1984 13.14501948161675
ONEWEB-0200             
1 48244U 21031AL  24239.94346505  .00000113  00000+0  27122-3 0  9996
2 48244  87.8921  60.8143 0001799  96.2942 263.8393 13.14504242161625
ONEWEB-0217             
1 48245U 21031AM  24239.42649566  .00000239  00000+0  61110-3 0  9997
2 48245  87.8922  60.9022 0001790 100.4159 259.7172 13.14503593161507
ONEWEB-0211             
1 48767U 21045A   24239.67798603 -.00000019  00000+0 -83259-4 0  9992
2 48767  87.9056  30.4082 0001630  96.7433 263.3883 13.15549318157701
ONEWEB-0223             
1 48768U 21045B   24239.70018287  .00000155  00000+0  37859-3 0  9993
2 48768  87.9059  30.4135 0001283 111.7434 248.3833 13.15549231157697
ONEWEB-0230             
1 48769U 21045C   24240.12799719  .00000082  00000+0  18502-3 0  9991
2 48769  87.9059  30.3985 0001613  90.8568 269.2747 13.15547285159125
ONEWEB-0237             
1 48770U 21045D   24239.66055402  .00000155  00000+0  37653-3 0  9993
2 48770  87.9064  30.4269 0001391 103.9741 256.1544 13.15550146157679
ONEWEB-0235             
1 48771U 21045E   24240.16760877  .00000165  00000+0  40533-3 0  9992
2 48771  87.9056  30.3302 0001102 112.9655 247.1591 13.15548263158852
ONEWEB-0242             
1 48772U 21045F   24239.70492566  .00000145  00000+0  35105-3 0  9995
2 48772  87.9055  30.4100 0001496  94.0593 266.0708 13.15549072157719
ONEWEB-0241             
1 48773U 21045G   24240.14861319 -.00001202  00000+0 -32279-2 0  9997
2 48773  87.9079  30.3736 0002012 105.8169 254.3183 13.15534811158819
ONEWEB-0243             
1 48774U 21045H   24240.18028891  .00000161  00000+0  39365-3 0  9997
2 48774  87.9065  30.3289 0001174 105.0994 255.0266 13.15547125158849
ONEWEB-0222             
1 48775U 21045J   24239.93547781  .00000014  00000+0  24848-5 0  9992
2 48775  87.9055  30.3735 0001589 104.0444 256.0863 13.15548469158840
ONEWEB-0244             
1 48776U 21045K   24239.65738286  .00000123  00000+0  29343-3 0  9998
2 48776  87.9052  30.4106 0001548  91.7384 268.3924 13.15546455158253
ONEWEB-0247             
1 48777U 21045L   24239.65420604 -.00000015  00000+0 -72979-4 0  9997
2 48777  87.9061  30.4574 0000763 121.1572 238.9633 13.15548267157698
ONEWEB-0245             
1 48778U 21045M   24239.95369763  .00000168  00000+0  41123-3 0  9992
2 48778  87.9054  30.3832 0001772 102.4164 257.7165 13.15548090157702
ONEWEB-0229             
1 48779U 21045N   24240.17711313  .00000247  00000+0  62327-3 0  9998
2 48779  87.9055  30.3331 0001541  94.2790 265.8517 13.15549766158898
ONEWEB-0228             
1 48780U 21045P   24239.67719777 -.00000016  00000+0 -77482-4 0  9990
2 48780  87.9054  30.4140 0001649  96.2707 263.8611 13.15547177157613
ONEWEB-0232             
1 48781U 21045Q   24239.95687416  .00000151  00000+0  36695-3 0  9994
2 48781  87.9048  30.3689 0001669  95.6547 264.4773 13.15548272159098
ONEWEB-0231             
1 48782U 21045R   24240.16285606  .00000155  00000+0  37791-3 0  9997
2 48782  87.9065  30.3683 0001460 100.6720 259.4575 13.15548732158837
ONEWEB-0234             
1 48783U 21045S   24240.18266694  .00000242  00000+0  60935-3 0  9999
2 48783  87.9055  30.3182 0003032 100.2968 259.8504 13.15549379158966
ONEWEB-0238             
1 48784U 21045T   24239.68036636 -.00000021  00000+0 -89554-4 0  9990
2 48784  87.9055  30.4352 0001873  95.2860 264.8484 13.15549245157663
ONEWEB-0240             
1 48785U 21045U   24240.14621713 -.00000105  00000+0 -31285-3 0  9990
2 48785  87.9055  30.3097 0001655 109.2444 250.8865 13.15549144158871
ONEWEB-0246             
1 48786U 21045V   24239.68432158  .00000002  00000+0 -29512-4 0  9997
2 48786  87.9057  30.4071 0001556  93.7067 266.4241 13.15551949157567
ONEWEB-0210             
1 48787U 21045W   24239.65897060  .00000199  00000+0  49364-3 0  9994
2 48787  87.9056  30.4165 0000848  96.7812 263.3414 13.15550125157603
ONEWEB-0214             
1 48788U 21045X   24239.66847897  .00000087  00000+0  19671-3 0  9993
2 48788  87.9056  30.4034 0001142  83.8865 276.2396 13.15549107157578
ONEWEB-0221             
1 48789U 21045Y   24239.67481267  .00000046  00000+0  88408-4 0  9990
2 48789  87.9060  30.4220 0001607 103.4215 256.7094 13.15550277157663
ONEWEB-0213             
1 48790U 21045Z   24239.66372330  .00000142  00000+0  34238-3 0  9999
2 48790  87.9058  30.4367 0001435 103.9596 256.1694 13.15549209157720
ONEWEB-0212             
1 48791U 21045AA  24239.94498531  .00000216  00000+0  53853-3 0  9999
2 48791  87.9058  30.3647 0001790  95.7232 264.4103 13.15548358157754
ONEWEB-0227             
1 48792U 21045AB  24239.94418976  .00000160  00000+0  39028-3 0  9991
2 48792  87.9056  30.3798 0001650  99.9453 260.1864 13.15548339158832
ONEWEB-0226             
1 48793U 21045AC  24239.93785198  .00000164  00000+0  40243-3 0  9999
2 48793  87.9057  30.3870 0001185 100.6116 259.5147 13.15548287157673
ONEWEB-0224             
1 48794U 21045AD  24239.67323388  .00000046  00000+0  88991-4 0  9992
2 48794  87.9062  30.4638 0002342 122.1314 238.0044 13.15548953157564
ONEWEB-0233             
1 48795U 21045AE  24239.67877570 -.00000002  00000+0 -40642-4 0  9995
2 48795  87.9059  30.4762 0001624 104.8952 255.2359 13.15548557157588
ONEWEB-0190             
1 48796U 21045AF  24239.66530606  .00000085  00000+0  19232-3 0  9990
2 48796  87.9062  30.4394 0001048 126.6620 233.4607 13.15549631157654
ONEWEB-0236             
1 48797U 21045AG  24239.68273843 -.00000007  00000+0 -51717-4 0  9991
2 48797  87.9064  30.4321 0001747  99.7213 260.4114 13.15549145157542
ONEWEB-0248             
1 48798U 21045AH  24239.69540372  .00000085  00000+0  19281-3 0  9990
2 48798  87.9054  30.4142 0001756 121.4333 238.6969 13.15551437157709
ONEWEB-0225             
1 48799U 21045AJ  24239.94577545  .00000195  00000+0  48505-3 0  9994
2 48799  87.9060  30.3799 0001420 108.7238 251.4046 13.15548458157746
ONEWEB-0215             
1 48800U 21045AK  24240.14382561 -.00000077  00000+0 -23927-3 0  9995
2 48800  87.9052  30.3103 0001504 126.3618 233.7651 13.15552734158760
ONEWEB-0216             
1 48801U 21045AL  24240.15334402  .00000016  00000+0  72840-5 0  9999
2 48801  87.9055  30.3503 0001496  89.5090 270.6211 13.15549561158779
ONEWEB-0239             
1 48802U 21045AM  24240.15809759 -.00000042  00000+0 -14452-3 0  9996
2 48802  87.9065  30.3314 0001721 128.2464 231.8822 13.15548290158830
ONEWEB-0249             
1 48967U 21060A   24240.08246708  .00000018  00000+0  12268-4 0  9991
2 48967  87.9162   0.0151 0001837  98.8031 261.3308 13.16594797154177
ONEWEB-0250             
1 48968U 21060B   24240.05862796  .00000025  00000+0  26856-4 0  9996
2 48968  87.9164 359.9187 0001865 112.8362 247.2971 13.25520227154176
ONEWEB-0252             
1 48970U 21060D   24240.03813097  .00000055  00000+0  11023-3 0  9999
2 48970  87.9165   0.0171 0001639  96.7787 263.3531 13.16595845154211
ONEWEB-0253             
1 48971U 21060E   24239.57106557  .00000166  00000+0  40056-3 0  9994
2 48971  87.9161   0.1204 0001525 106.4850 253.6449 13.16595822152796
ONEWEB-0254             
1 48972U 21060F   24239.58056499  .00000130  00000+0  30588-3 0  9995
2 48972  87.9164   0.0974 0001567 106.8585 253.2718 13.16595682152797
ONEWEB-0255             
1 48973U 21060G   24239.61856568  .00000052  00000+0  10162-3 0  9994
2 48973  87.9163   0.1240 0001828 101.0823 259.0514 13.16594815152870
ONEWEB-0256             
1 48974U 21060H   24240.10065486  .00000223  00000+0  54900-3 0  9990
2 48974  87.9166   0.0342 0001722  93.0962 267.0366 13.16597716154197
ONEWEB-0257             
1 48975U 21060J   24239.60113729  .00000075  00000+0  16323-3 0  9990
2 48975  87.9164   0.1017 0001632  97.8303 262.3013 13.16594046154085
ONEWEB-0258             
1 48976U 21060K   24240.05870904 -.00000023  00000+0 -94682-4 0  9997
2 48976  87.9162   0.0393 0001841 100.8400 259.2938 13.16596790154141
ONEWEB-0259             
1 48977U 21060L   24240.05237354 -.00000007  00000+0 -53050-4 0  9990
2 48977  87.9162   0.0254 0001842 108.2058 251.9273 13.16593971154183
ONEWEB-0260             
1 48978U 21060M   24240.04365865  .00000017  00000+0  97347-5 0  9996
2 48978  87.9162   0.0561 0001416  82.3902 277.7390 13.16597411154158
ONEWEB-0261             
1 48979U 21060N   24239.63281803  .00000200  00000+0  48990-3 0  9991
2 48979  87.9164   0.1329 0001310 112.0789 248.0481 13.16595145154177
ONEWEB-0262             
1 48980U 21060P   24239.61381542  .00000070  00000+0  14929-3 0  9992
2 48980  87.9163   0.0988 0001856 114.0946 246.0380 13.16595051152833
ONEWEB-0263             
1 48981U 21060Q   24240.10146312  .00000165  00000+0  39688-3 0  9997
2 48981  87.9165   0.0209 0001529 114.3000 245.8290 13.16595769154164
ONEWEB-0264             
1 48982U 21060R   24239.60668807  .00000097  00000+0  22120-3 0  9996
2 48982  87.9164   0.1294 0001754 100.3997 259.7332 13.16595826152803
ONEWEB-0266             
1 48984U 21060T   24239.62807039  .00000185  00000+0  44928-3 0  9990
2 48984  87.9163   0.1011 0001907  99.9183 260.2163 13.16595979154092
ONEWEB-0267             
1 48985U 21060U   24239.63915081  .00000165  00000+0  39833-3 0  9996
2 48985  87.9164   0.1006 0001419 104.2296 255.8993 13.16595780152809
ONEWEB-0268             
1 48986U 21060V   24239.60747508  .00000007  00000+0 -16121-4 0  9993
2 48986  87.9162   0.1129 0001672  94.6856 265.4466 13.16595155154359
ONEWEB-0269             
1 48987U 21060W   24239.58848276  .00000619  00000+0  15852-2 0  9991
2 48987  87.9164   0.1443 0001762  97.0536 263.0796 13.16589465152831
ONEWEB-0270             
1 48988U 21060X   24240.06188123  .00000011  00000+0 -50622-5 0  9999
2 48988  87.9159   0.0303 0001582 117.3372 242.7920 13.16595542154247
